{
  "type": "FeatureCollection",
  "features": [
    {
      "type": "Feature",
      "properties": {
        "CODE": 136,
        "SCHN_NAME": "גבעת רם",
        "Shape_STAr": 1049114.69247,
        "Shape_STLe": 5226.35969186
      },
      "geometry": {
        "type": "Polygon",
        "coordinates": [
          [
            [
              35.1940341,
              31.7779093
            ],
            [
              35.1938919,
              31.7771352
            ],
            [
              35.1938288,
              31.7760551
            ],
            [
              35.1939395,
              31.7751055
            ],
            [
              35.1941253,
              31.7741214
            ],
            [
              35.1943665,
              31.7728912
            ],
            [
              35.1948725,
              31.7704835
            ],
            [
              35.1950102,
              31.7693006
            ],
            [
              35.194694,
              31.7683476
            ],
            [
              35.1942945,
              31.7675083
            ],
            [
              35.1939759,
              31.7669535
            ],
            [
              35.1951299,
              31.7666757
            ],
            [
              35.1963257,
              31.7663653
            ],
            [
              35.1970422,
              31.7661493
            ],
            [
              35.1978796,
              31.7658429
            ],
            [
              35.1988295,
              31.7656897
            ],
            [
              35.199467,
              31.7656583
            ],
            [
              35.2001096,
              31.7656673
            ],
            [
              35.2006259,
              31.7657303
            ],
            [
              35.2011316,
              31.7658428
            ],
            [
              35.2015635,
              31.7659464
            ],
            [
              35.202006,
              31.7660769
            ],
            [
              35.2022431,
              31.7662074
            ],
            [
              35.2024984,
              31.7664204
            ],
            [
              35.2021432,
              31.7667468
            ],
            [
              35.2020292,
              31.7667563
            ],
            [
              35.2018974,
              31.7668823
            ],
            [
              35.2016114,
              31.7672221
            ],
            [
              35.2015376,
              31.7672507
            ],
            [
              35.2014483,
              31.767245
            ],
            [
              35.2013321,
              31.7672392
            ],
            [
              35.2012248,
              31.7672641
            ],
            [
              35.2010863,
              31.7673519
            ],
            [
              35.2009835,
              31.7674549
            ],
            [
              35.2009634,
              31.7676458
            ],
            [
              35.2007556,
              31.7679551
            ],
            [
              35.2006617,
              31.76823
            ],
            [
              35.2005254,
              31.7686308
            ],
            [
              35.2004628,
              31.7688752
            ],
            [
              35.2004494,
              31.7693543
            ],
            [
              35.2004509,
              31.7695744
            ],
            [
              35.2005975,
              31.7698697
            ],
            [
              35.2007658,
              31.7700072
            ],
            [
              35.2007025,
              31.7703619
            ],
            [
              35.2006313,
              31.7713779
            ],
            [
              35.200572,
              31.7722791
            ],
            [
              35.200527,
              31.7730737
            ],
            [
              35.2005144,
              31.773463
            ],
            [
              35.2004842,
              31.7737668
            ],
            [
              35.200585,
              31.7740478
            ],
            [
              35.2008368,
              31.7744655
            ],
            [
              35.2012724,
              31.7751566
            ],
            [
              35.2013465,
              31.7755186
            ],
            [
              35.2013406,
              31.7756275
            ],
            [
              35.2015569,
              31.7756478
            ],
            [
              35.2019777,
              31.7756959
            ],
            [
              35.2022622,
              31.7756984
            ],
            [
              35.2025082,
              31.7756225
            ],
            [
              35.2026949,
              31.7755187
            ],
            [
              35.2028875,
              31.7752756
            ],
            [
              35.2031068,
              31.7748529
            ],
            [
              35.2032135,
              31.7747061
            ],
            [
              35.2034121,
              31.7745871
            ],
            [
              35.2035958,
              31.7745668
            ],
            [
              35.2038388,
              31.7746352
            ],
            [
              35.203987,
              31.7747567
            ],
            [
              35.2041825,
              31.7749997
            ],
            [
              35.2037803,
              31.7753394
            ],
            [
              35.2033393,
              31.7759322
            ],
            [
              35.202686,
              31.7766612
            ],
            [
              35.1991848,
              31.7801906
            ],
            [
              35.1988458,
              31.7806785
            ],
            [
              35.1984862,
              31.7813569
            ],
            [
              35.1982391,
              31.7816306
            ],
            [
              35.197786,
              31.7820041
            ],
            [
              35.1970473,
              31.7823426
            ],
            [
              35.1965784,
              31.781798
            ],
            [
              35.1961258,
              31.7812336
            ],
            [
              35.1952719,
              31.7801687
            ],
            [
              35.1946398,
              31.779327
            ],
            [
              35.1943554,
              31.7786879
            ],
            [
              35.1940341,
              31.7779093
            ]
          ]
        ]
      }
    },
    {
      "type": "Feature",
      "properties": {
        "CODE": 240,
        "SCHN_NAME": "הר הרצל",
        "Shape_STAr": 322201.693222,
        "Shape_STLe": 2414.10563178
      },
      "geometry": {
        "type": "Polygon",
        "coordinates": [
          [
            [
              35.1836105,
              31.7749108
            ],
            [
              35.1839006,
              31.7754337
            ],
            [
              35.1841731,
              31.7759873
            ],
            [
              35.1839834,
              31.7760717
            ],
            [
              35.1836713,
              31.7761493
            ],
            [
              35.1828699,
              31.7763076
            ],
            [
              35.1822887,
              31.7763736
            ],
            [
              35.1817882,
              31.7765491
            ],
            [
              35.1812821,
              31.7769427
            ],
            [
              35.181019,
              31.7773983
            ],
            [
              35.1802098,
              31.7795
            ],
            [
              35.1800848,
              31.779448
            ],
            [
              35.1798078,
              31.7793971
            ],
            [
              35.1795909,
              31.7793711
            ],
            [
              35.1795109,
              31.7793571
            ],
            [
              35.1792859,
              31.7793191
            ],
            [
              35.1790508,
              31.7792531
            ],
            [
              35.1789938,
              31.779234
            ],
            [
              35.1785972,
              31.7791863
            ],
            [
              35.1780978,
              31.7791265
            ],
            [
              35.1778814,
              31.7782734
            ],
            [
              35.1777282,
              31.776961
            ],
            [
              35.1776726,
              31.7760304
            ],
            [
              35.1776519,
              31.7758618
            ],
            [
              35.177657,
              31.7755054
            ],
            [
              35.177698,
              31.7751035
            ],
            [
              35.1777819,
              31.7746382
            ],
            [
              35.1781675,
              31.7742016
            ],
            [
              35.1783184,
              31.7737364
            ],
            [
              35.1785952,
              31.7727271
            ],
            [
              35.1789202,
              31.7719975
            ],
            [
              35.1792497,
              31.7720119
            ],
            [
              35.1796184,
              31.7720311
            ],
            [
              35.1798866,
              31.7720168
            ],
            [
              35.180272,
              31.7719978
            ],
            [
              35.181339,
              31.7719312
            ],
            [
              35.1818777,
              31.7718561
            ],
            [
              35.181901,
              31.7719366
            ],
            [
              35.1821874,
              31.7725663
            ],
            [
              35.1824776,
              31.7731584
            ],
            [
              35.1829645,
              31.7738626
            ],
            [
              35.1831284,
              31.7741148
            ],
            [
              35.1833137,
              31.774414
            ],
            [
              35.1836105,
              31.7749108
            ]
          ]
        ]
      }
    },
    {
      "type": "Feature",
      "properties": {
        "CODE": 567,
        "SCHN_NAME": "קריית הלאום",
        "Shape_STAr": 1590323.77022,
        "Shape_STLe": 6469.37126889
      },
      "geometry": {
        "type": "Polygon",
        "coordinates": [
          [
            [
              35.2009269,
              31.787814
            ],
            [
              35.2002993,
              31.788047
            ],
            [
              35.1998811,
              31.7876897
            ],
            [
              35.199225,
              31.7869883
            ],
            [
              35.1988835,
              31.7866966
            ],
            [
              35.1986806,
              31.7865312
            ],
            [
              35.1977014,
              31.7855776
            ],
            [
              35.1966319,
              31.7844974
            ],
            [
              35.1960788,
              31.7839168
            ],
            [
              35.1956585,
              31.7835662
            ],
            [
              35.1953833,
              31.7834127
            ],
            [
              35.1948723,
              31.7832371
            ],
            [
              35.1949408,
              31.7830121
            ],
            [
              35.1950514,
              31.7828591
            ],
            [
              35.1951937,
              31.7827871
            ],
            [
              35.1955678,
              31.7826971
            ],
            [
              35.1965267,
              31.7824721
            ],
            [
              35.1970473,
              31.7823426
            ],
            [
              35.197786,
              31.7820041
            ],
            [
              35.1982391,
              31.7816306
            ],
            [
              35.1984862,
              31.7813569
            ],
            [
              35.1988458,
              31.7806785
            ],
            [
              35.1991848,
              31.7801906
            ],
            [
              35.202686,
              31.7766612
            ],
            [
              35.2033393,
              31.7759322
            ],
            [
              35.2037803,
              31.7753394
            ],
            [
              35.2041825,
              31.7749997
            ],
            [
              35.203987,
              31.7747567
            ],
            [
              35.2038388,
              31.7746352
            ],
            [
              35.2035958,
              31.7745668
            ],
            [
              35.2034121,
              31.7745871
            ],
            [
              35.2032135,
              31.7747061
            ],
            [
              35.2031068,
              31.7748529
            ],
            [
              35.2028875,
              31.7752756
            ],
            [
              35.2026949,
              31.7755187
            ],
            [
              35.2025082,
              31.7756225
            ],
            [
              35.2022622,
              31.7756984
            ],
            [
              35.2019777,
              31.7756959
            ],
            [
              35.2015569,
              31.7756478
            ],
            [
              35.2013406,
              31.7756275
            ],
            [
              35.2013465,
              31.7755186
            ],
            [
              35.2012724,
              31.7751566
            ],
            [
              35.2008368,
              31.7744655
            ],
            [
              35.200585,
              31.7740478
            ],
            [
              35.2004842,
              31.7737668
            ],
            [
              35.2005144,
              31.773463
            ],
            [
              35.200527,
              31.7730737
            ],
            [
              35.2006287,
              31.7730694
            ],
            [
              35.2008687,
              31.7730993
            ],
            [
              35.2009921,
              31.7731549
            ],
            [
              35.2011671,
              31.7732175
            ],
            [
              35.201377,
              31.7732464
            ],
            [
              35.2013805,
              31.7730048
            ],
            [
              35.2013993,
              31.7726192
            ],
            [
              35.201506,
              31.7723087
            ],
            [
              35.2017273,
              31.7718058
            ],
            [
              35.2020485,
              31.7711268
            ],
            [
              35.2022218,
              31.7708173
            ],
            [
              35.2024107,
              31.7705743
            ],
            [
              35.2027174,
              31.7702933
            ],
            [
              35.2028982,
              31.7701129
            ],
            [
              35.2030886,
              31.769923
            ],
            [
              35.2033508,
              31.7697939
            ],
            [
              35.203417,
              31.7697993
            ],
            [
              35.2036109,
              31.7698072
            ],
            [
              35.2038443,
              31.7698995
            ],
            [
              35.2039109,
              31.7699211
            ],
            [
              35.2049679,
              31.7705574
            ],
            [
              35.2053755,
              31.7708021
            ],
            [
              35.2054755,
              31.7707698
            ],
            [
              35.2055822,
              31.7707745
            ],
            [
              35.2056691,
              31.770815
            ],
            [
              35.2057877,
              31.7708589
            ],
            [
              35.2058825,
              31.7708622
            ],
            [
              35.2059457,
              31.7708352
            ],
            [
              35.206001,
              31.7707778
            ],
            [
              35.2060366,
              31.7707036
            ],
            [
              35.2060228,
              31.7706117
            ],
            [
              35.2060064,
              31.7705512
            ],
            [
              35.2060785,
              31.7705426
            ],
            [
              35.206242,
              31.7704808
            ],
            [
              35.2064418,
              31.770471
            ],
            [
              35.2065564,
              31.7705351
            ],
            [
              35.2067855,
              31.7707241
            ],
            [
              35.2070147,
              31.7708693
            ],
            [
              35.2071016,
              31.770876
            ],
            [
              35.2072004,
              31.7708591
            ],
            [
              35.2074404,
              31.7707775
            ],
            [
              35.2077716,
              31.7706161
            ],
            [
              35.2080016,
              31.770499
            ],
            [
              35.208366,
              31.77038
            ],
            [
              35.2084253,
              31.7703294
            ],
            [
              35.2084431,
              31.7702003
            ],
            [
              35.2083917,
              31.7699271
            ],
            [
              35.2086475,
              31.7699598
            ],
            [
              35.2089498,
              31.7699826
            ],
            [
              35.2089496,
              31.7702764
            ],
            [
              35.2088864,
              31.7715906
            ],
            [
              35.2090426,
              31.7745196
            ],
            [
              35.2091138,
              31.776074
            ],
            [
              35.209179,
              31.7771119
            ],
            [
              35.2091702,
              31.7778385
            ],
            [
              35.209108,
              31.778522
            ],
            [
              35.2089565,
              31.7794933
            ],
            [
              35.2088532,
              31.780165
            ],
            [
              35.2087851,
              31.7805903
            ],
            [
              35.2086784,
              31.7809194
            ],
            [
              35.2086051,
              31.7811472
            ],
            [
              35.2085895,
              31.7812687
            ],
            [
              35.2085836,
              31.7815168
            ],
            [
              35.208551,
              31.7818966
            ],
            [
              35.2084858,
              31.7822434
            ],
            [
              35.2084236,
              31.7827244
            ],
            [
              35.2083835,
              31.783014
            ],
            [
              35.20832,
              31.783509
            ],
            [
              35.2082217,
              31.7839051
            ],
            [
              35.2081288,
              31.7841148
            ],
            [
              35.208025,
              31.7843491
            ],
            [
              35.2076974,
              31.7849866
            ],
            [
              35.2074981,
              31.7853873
            ],
            [
              35.2072171,
              31.7859633
            ],
            [
              35.2070501,
              31.7863829
            ],
            [
              35.2069522,
              31.7865686
            ],
            [
              35.20684,
              31.786726
            ],
            [
              35.2064814,
              31.7869506
            ],
            [
              35.2058472,
              31.7872655
            ],
            [
              35.2051658,
              31.7876016
            ],
            [
              35.2044984,
              31.7878776
            ],
            [
              35.2022229,
              31.787779
            ],
            [
              35.2009269,
              31.787814
            ]
          ]
        ]
      }
    }
  ]
}